[Satellite]
VERSION=1.1
NAME=FLOCK 3P-10
NICKNAME=FLOCK 3P-10
TLE1=1 41974U 17008AC  17186.23980807  .00002996  00000-0  13204-3 0  9990
TLE2=2 41974  97.4953 247.5263 0009859 124.9111 235.3053 15.22561696 21099
